{
  "type": "FeatureCollection",
  "features": [
    {
      "type": "Feature",
      "properties": {
        "norad_id": 34056,
        "name": "COSMOS 2251 DEB",
        "group": "cosmos-2251-debris",
        "lat": -72.30918925703442,
        "lon": -38.40897295509578,
        "alt_km": 894.450407111025,
        "timestamp": "2025-12-11T20:41:15.474646+00:00",
        "meta_object_name": "COSMOS 2251 DEB",
        "meta_object_id": "1993-036JT",
        "meta_epoch": "2025-12-11T12:46:05.942208",
        "meta_mean_motion": 14.20549713,
        "meta_eccentricity": 0.01241583,
        "meta_inclination": 74.0592,
        "meta_ra_of_asc_node": 78.5364,
        "meta_arg_of_pericenter": 126.6961,
        "meta_mean_anomaly": 247.7443,
        "meta_ephemeris_type": 0,
        "meta_classification_type": "U",
        "meta_norad_cat_id": 34056,
        "meta_element_set_no": 999,
        "meta_rev_at_epoch": 86394,
        "meta_bstar": 0.0017727331,
        "meta_mean_motion_dot": 4.096e-05,
        "meta_mean_motion_ddot": 0,
        "tle_line1": "1 34056U 93036JT  25345.53201322  .00004096  00000+0  17727-2 0  9990",
        "tle_line2": "2 34056  74.0592  78.5364 0124158 126.6961 247.7443 14.20549713863949"
      },
      "geometry": {
        "type": "Point",
        "coordinates": [
          -38.40897295509578,
          -72.30918925703442
        ]
      }
    },
    {
      "type": "Feature",
      "properties": {
        "norad_id": 34058,
        "name": "COSMOS 2251 DEB",
        "group": "cosmos-2251-debris",
        "lat": -71.20164836636141,
        "lon": 57.389895797225606,
        "alt_km": 1022.7663552040513,
        "timestamp": "2025-12-11T20:41:15.474657+00:00",
        "meta_object_name": "COSMOS 2251 DEB",
        "meta_object_id": "1993-036JV",
        "meta_epoch": "2025-12-11T12:29:43.643328",
        "meta_mean_motion": 13.56073302,
        "meta_eccentricity": 0.03780044,
        "meta_inclination": 73.9315,
        "meta_ra_of_asc_node": 180.0886,
        "meta_arg_of_pericenter": 175.5575,
        "meta_mean_anomaly": 214.4836,
        "meta_ephemeris_type": 0,
        "meta_classification_type": "U",
        "meta_norad_cat_id": 34058,
        "meta_element_set_no": 999,
        "meta_rev_at_epoch": 83126,
        "meta_bstar": 0.00096612898,
        "meta_mean_motion_dot": 1.052e-05,
        "meta_mean_motion_ddot": 0,
        "tle_line1": "1 34058U 93036JV  25345.52064402  .00001052  00000+0  96613-3 0  9998",
        "tle_line2": "2 34058  73.9315 180.0886 0378004 175.5575 214.4836 13.56073302831266"
      },
      "geometry": {
        "type": "Point",
        "coordinates": [
          57.389895797225606,
          -71.20164836636141
        ]
      }
    },
    {
      "type": "Feature",
      "properties": {
        "norad_id": 34059,
        "name": "COSMOS 2251 DEB",
        "group": "cosmos-2251-debris",
        "lat": 9.093916680342616,
        "lon": 5.306767462914033,
        "alt_km": 718.5257792891889,
        "timestamp": "2025-12-11T20:41:15.474666+00:00",
        "meta_object_name": "COSMOS 2251 DEB",
        "meta_object_id": "1993-036JW",
        "meta_epoch": "2025-12-11T13:27:04.103424",
        "meta_mean_motion": 14.5293554,
        "meta_eccentricity": 0.00186489,
        "meta_inclination": 74.0378,
        "meta_ra_of_asc_node": 188.5012,
        "meta_arg_of_pericenter": 265.8819,
        "meta_mean_anomaly": 128.2754,
        "meta_ephemeris_type": 0,
        "meta_classification_type": "U",
        "meta_norad_cat_id": 34059,
        "meta_element_set_no": 999,
        "meta_rev_at_epoch": 88442,
        "meta_bstar": 0.0010916895,
        "meta_mean_motion_dot": 4.483e-05,
        "meta_mean_motion_ddot": 0,
        "tle_line1": "1 34059U 93036JW  25345.56046416  .00004483  00000+0  10917-2 0  9991",
        "tle_line2": "2 34059  74.0378 188.5012 0018648 265.8819 128.2754 14.52935540884426"
      },
      "geometry": {
        "type": "Point",
        "coordinates": [
          5.306767462914033,
          9.093916680342616
        ]
      }
    },
    {
      "type": "Feature",
      "properties": {
        "norad_id": 34061,
        "name": "COSMOS 2251 DEB",
        "group": "cosmos-2251-debris",
        "lat": -16.650542507455594,
        "lon": 89.92200174264204,
        "alt_km": 773.7726234834163,
        "timestamp": "2025-12-11T20:41:15.474676+00:00",
        "meta_object_name": "COSMOS 2251 DEB",
        "meta_object_id": "1993-036JY",
        "meta_epoch": "2025-12-11T05:18:29.257344",
        "meta_mean_motion": 14.40351757,
        "meta_eccentricity": 0.00204872,
        "meta_inclination": 74.0394,
        "meta_ra_of_asc_node": 266.196,
        "meta_arg_of_pericenter": 343.3569,
        "meta_mean_anomaly": 132.5599,
        "meta_ephemeris_type": 0,
        "meta_classification_type": "U",
        "meta_norad_cat_id": 34061,
        "meta_element_set_no": 999,
        "meta_rev_at_epoch": 88158,
        "meta_bstar": 0.00052772527,
        "meta_mean_motion_dot": 1.652e-05,
        "meta_mean_motion_ddot": 0,
        "tle_line1": "1 34061U 93036JY  25345.22117196  .00001652  00000+0  52773-3 0  9993",
        "tle_line2": "2 34061  74.0394 266.1960 0020487 343.3569 132.5599 14.40351757881588"
      },
      "geometry": {
        "type": "Point",
        "coordinates": [
          89.92200174264204,
          -16.650542507455594
        ]
      }
    },
    {
      "type": "Feature",
      "properties": {
        "norad_id": 34062,
        "name": "COSMOS 2251 DEB",
        "group": "cosmos-2251-debris",
        "lat": -15.942579737395063,
        "lon": -35.54435449849681,
        "alt_km": 589.6130361775804,
        "timestamp": "2025-12-11T20:41:15.474687+00:00",
        "meta_object_name": "COSMOS 2251 DEB",
        "meta_object_id": "1993-036JZ",
        "meta_epoch": "2025-12-11T11:58:27.978816",
        "meta_mean_motion": 14.78590779,
        "meta_eccentricity": 0.0074881,
        "meta_inclination": 74.0275,
        "meta_ra_of_asc_node": 140.4762,
        "meta_arg_of_pericenter": 219.8188,
        "meta_mean_anomaly": 205.2944,
        "meta_ephemeris_type": 0,
        "meta_classification_type": "U",
        "meta_norad_cat_id": 34062,
        "meta_element_set_no": 999,
        "meta_rev_at_epoch": 88577,
        "meta_bstar": 0.0054715223,
        "meta_mean_motion_dot": 0.00042185,
        "meta_mean_motion_ddot": 0,
        "tle_line1": "1 34062U 93036JZ  25345.49893494  .00042185  00000+0  54715-2 0  9998",
        "tle_line2": "2 34062  74.0275 140.4762 0074881 219.8188 205.2944 14.78590779885779"
      },
      "geometry": {
        "type": "Point",
        "coordinates": [
          -35.54435449849681,
          -15.942579737395063
        ]
      }
    },
    {
      "type": "Feature",
      "properties": {
        "norad_id": 34064,
        "name": "COSMOS 2251 DEB",
        "group": "cosmos-2251-debris",
        "lat": 14.601281503161651,
        "lon": 88.21926430484501,
        "alt_km": 766.9867812914117,
        "timestamp": "2025-12-11T20:41:15.474697+00:00",
        "meta_object_name": "COSMOS 2251 DEB",
        "meta_object_id": "1993-036KB",
        "meta_epoch": "2025-12-11T07:21:51.065856",
        "meta_mean_motion": 14.42331059,
        "meta_eccentricity": 0.00220682,
        "meta_inclination": 74.0328,
        "meta_ra_of_asc_node": 273.5261,
        "meta_arg_of_pericenter": 340.0935,
        "meta_mean_anomaly": 183.2606,
        "meta_ephemeris_type": 0,
        "meta_classification_type": "U",
        "meta_norad_cat_id": 34064,
        "meta_element_set_no": 999,
        "meta_rev_at_epoch": 88121,
        "meta_bstar": 0.00096244871,
        "meta_mean_motion_dot": 3.163e-05,
        "meta_mean_motion_ddot": 0,
        "tle_line1": "1 34064U 93036KB  25345.30684104  .00003163  00000+0  96245-3 0  9994",
        "tle_line2": "2 34064  74.0328 273.5261 0022068 340.0935 183.2606 14.42331059881219"
      },
      "geometry": {
        "type": "Point",
        "coordinates": [
          88.21926430484501,
          14.601281503161651
        ]
      }
    },
    {
      "type": "Feature",
      "properties": {
        "norad_id": 34065,
        "name": "COSMOS 2251 DEB",
        "group": "cosmos-2251-debris",
        "lat": -11.074168738494475,
        "lon": 82.94943441146035,
        "alt_km": 780.162992469759,
        "timestamp": "2025-12-11T20:41:15.474706+00:00",
        "meta_object_name": "COSMOS 2251 DEB",
        "meta_object_id": "1993-036KC",
        "meta_epoch": "2025-12-11T12:16:00.005952",
        "meta_mean_motion": 14.38061023,
        "meta_eccentricity": 0.00163261,
        "meta_inclination": 74.0359,
        "meta_ra_of_asc_node": 260.3837,
        "meta_arg_of_pericenter": 358.1364,
        "meta_mean_anomaly": 177.5712,
        "meta_ephemeris_type": 0,
        "meta_classification_type": "U",
        "meta_norad_cat_id": 34065,
        "meta_element_set_no": 999,
        "meta_rev_at_epoch": 88187,
        "meta_bstar": 0.0002899303,
        "meta_mean_motion_dot": 8.53e-06,
        "meta_mean_motion_ddot": 0,
        "tle_line1": "1 34065U 93036KC  25345.51111118  .00000853  00000+0  28993-3 0  9996",
        "tle_line2": "2 34065  74.0359 260.3837 0016326 358.1364 177.5712 14.38061023881875"
      },
      "geometry": {
        "type": "Point",
        "coordinates": [
          82.94943441146035,
          -11.074168738494475
        ]
      }
    }
  ]
}